NUSAT-1 (FRESCO)        
1 41557U 16033B   22051.82110975  .00007996  00000+0  26328-3 0  9992
2 41557  97.3878 149.6360 0013369  74.3417  78.4693 15.31674887319519
BEESAT-4                
1 41619U 16040W   22051.39061912  .00009426  00000+0  34876-3 0  9994
2 41619  97.2352 105.3303 0010521 164.8140 195.3418 15.27838636302835
CAS-2T & KS-1Q          
1 41847U 16066G   22051.41651838  .00000707  00000+0  11641-3 0  9998
2 41847  98.5674 116.1495 0364390 199.6814 159.0000 14.38373809277529
NAYIF-1 (EO-88)         
1 42017U 17008BX  22051.43371835  .00010879  00000+0  36740-3 0  9991
2 42017  97.2844 119.5040 0004363 317.1010  42.9891 15.30832933279153
ZHUHAI-1 02 (CAS-4B)    
1 42759U 17034B   22051.85352957  .00002036  00000+0  13304-3 0  9990
2 42759  43.0168 254.9030 0009581 277.5730  96.9596 15.10931660258717
ZHUHAI-1 01 (CAS-4A)    
1 42761U 17034D   22051.85018946  .00001951  00000+0  12778-3 0  9999
2 42761  43.0168 253.7934 0009779 280.2110 203.3748 15.11016060258714
MAX VALIER SAT          
1 42778U 17036P   22051.59811810  .00004910  00000+0  19902-3 0  9995
2 42778  97.2233  96.7762 0011949  28.4791 331.7098 15.25027342259084
RADFXSAT (FOX-1B)       
1 43017U 17073E   22051.41109674  .00002572  00000+0  20066-3 0  9997
2 43017  97.6886 310.3828 0251177 210.4948 148.1457 14.80412785229796
FOX-1D (AO-92)          
1 43137U 18004AC  22051.47278059  .00007152  00000+0  27219-3 0  9991
2 43137  97.3802 127.8427 0009510  61.7676 298.4522 15.27014027228483
DIWATA-2B               
1 43678U 18084H   22051.89360478  .00000271  00000+0  32517-4 0  9995
2 43678  97.9501 183.9545 0009060 317.6720  42.3791 14.91925917180471
ES'HAIL 2               
1 43700U 18090A   22051.32628396  .00000147  00000+0  00000+0 0  9991
2 43700   0.0122 116.8381 0002523 247.0561 289.5841  1.00273508 11854
FOX-1CLIFF (AO-95)      
1 43770U 18099N   22051.74740611  .00001729  00000+0  15979-3 0  9990
2 43770  97.6359 121.1064 0013117 311.2470  48.7620 14.95798409175565
ITASAT 1                
1 43786U 18099AE  22051.48812622  .00001300  00000+0  12069-3 0  9992
2 43786  97.6384 121.7021 0013688 304.2976  55.6949 14.96029995175564
JY1SAT (JO-97)          
1 43803U 18099AX  22051.73911016  .00002178  00000+0  19706-3 0  9996
2 43803  97.6344 121.6844 0013450 302.1545  57.8371 14.96376965175619
UWE-4                   
1 43880U 18111E   22051.48746650  .00002510  00000+0  22051-3 0  9995
2 43880  97.6768 319.8560 0011960   1.9843 358.1425 14.97417281172194
NEXUS (FO-99)           
1 43937U 19003F   22051.88708115  .00006632  00000+0  24517-3 0  9995
2 43937  97.1468  89.9236 0021215 205.8428 154.1754 15.27816947172164
PSAT2 (NO-104)          
1 44354U 19036R   22051.70741436  .00053992  00000+0  60923-3 0  9991
2 44354  28.5236 259.1145 0278640 108.3678 254.7428 15.26159838146747
BRICSAT2 (NO-103)       
1 44355U 19036S   22051.61136233  .00158059 -16086-6  87228-3 0  9991
2 44355  28.5215 154.8749 0142223 278.3740  80.0765 15.65018517147770
JAISAT-1                
1 44419U 19038F   22051.49610947  .00005284  00000+0  28322-3 0  9991
2 44419  97.6236  20.9685 0020534 171.0834 189.0766 15.15248613145334
DUCHIFAT-3              
1 44854U 19089C   22051.72965398  .00002345  00000+0  19033-3 0  9993
2 44854  36.9669  71.8236 0008641 346.6341  13.4172 15.00164355120392
CAS-6 (TO-108)          
1 44881U 19093C   22051.88044467  .00000374  00000+0  54301-4 0  9998
2 44881  97.9025 132.7371 0014317 200.6257 159.4365 14.81572998117513
RS-44 & BREEZE-KM R/B   
1 44909U 19096E   22051.46464211  .00000024  00000+0  57602-4 0  9998
2 44909  82.5227 308.0188 0216451 233.1423 124.9661 12.79712012100540
ORBITAL FACTORY 2 (OF-2)
1 45113U 19071C   22051.02884430  .00013679  00000+0  35014-3 0  9992
2 45113  51.6391 274.4690 0011139 113.5551 246.6605 15.39644848115254
HUSKYSAT-1 (HO-107)     
1 45119U 19071J   22051.31462653  .00013424  00000+0  34711-3 0  9990
2 45119  51.6392 272.6113 0010696 110.3617 249.8517 15.39355185115290
BY70-2                  
1 45857U 20042B   22051.78544380  .00004192  00000+0  58466-3 0  9993
2 45857  97.9647 129.8658 0012214 131.7303 228.4898 14.78190243 88219
SALSAT                  
1 46495U 20068K   22051.35005478  .00001305  00000+0  99066-4 0  9998
2 46495  97.7197 352.7562 0015439 319.4088  40.5985 15.03910197 76588
BY70-3                  
1 46839U 20079N   22051.89237708  .00012457  00000+0  34505-3 0  9990
2 46839  97.2131 125.8888 0007432  43.8084  69.2568 15.37077698 72310
RADFXSAT-2 (AO-109)     
1 47311U 21002C   22051.50700112  .00004845  00000+0  21329-3 0  9997
2 47311  60.6850  81.7548 0020899 181.9596 178.1413 15.23240983 60630
UVSQ-SAT                
1 47438U 21006AB  22051.69757534  .00003906  00000+0  21715-3 0  9997
2 47438  97.4541 113.1406 0011372 326.1230  33.9274 15.14212608 59603
DIY-1 (ARDUIQUBE)       
1 47963U 21022AH  22051.23578144  .00009457  00000+0  58752-3 0  9994
2 47963  97.5427 314.2403 0018346 170.5756 189.5821 15.09741654 49240
XW-3 (CAS-9)            
1 50466U 21131B   22051.80101349  .00000084  00000+0  42292-4 0  9999
2 50466  98.5911 129.0735 0005737 129.6188 230.5500 14.38443841  8148
